EUTELSAT 8 WEST B       
1 40875U 15039B   26026.18933664 -.00000053  00000+0  00000+0 0  9995
2 40875   0.0674  18.8908 0003996 286.7361 240.0038  1.00270956 38230
EUTELSAT 9B             
1 41310U 16005A   26026.21585034  .00000074  00000+0  00000+0 0  9994
2 41310   0.0197  50.5622 0004743 244.7934 276.8277  1.00270184 36695
EUTELSAT 65 WEST A      
1 41382U 16014A   26026.20120358 -.00000263  00000+0  00000+0 0  9997
2 41382   0.0717 308.3687 0002348 354.0675 190.2851  1.00269876 36113
EUTELSAT 117 WEST B     
1 41589U 16038B   26026.26230391  .00000001  00000+0  00000+0 0  9996
2 41589   0.0032 122.8845 0000134 277.3243  62.7764  1.00271668 35247
EUTELSAT 172B           
1 42741U 17029B   26026.32325659  .00000006  00000+0  00000+0 0  9992
2 42741   0.0271 124.1344 0000203 128.8694 160.9626  1.00271017 32309
EUTELSAT 7C             
1 44334U 19034B   26025.35956975  .00000062  00000+0  00000+0 0  9995
2 44334   0.0771 184.6057 0003317 104.9486 331.5207  1.00268959  5402
EUTELSAT 5 WEST B       
1 44624U 19067A   26026.08378235 -.00000029  00000+0  00000+0 0  9995
2 44624   0.0727 327.9586 0003240 338.0304 204.5357  1.00271399 23012
EUTELSAT KONNECT        
1 45027U 20005B   26025.85890400  .00000062  00000+0  00000+0 0  9990
2 45027   0.0657  95.2895 0001747 197.9216 148.3330  1.00266980 22907
