<?xml version="1.0" encoding="UTF-8"?>
<ndm xmlns:xsi="http://www.w3.org/2001/XMLSchema-instance" xsi:noNamespaceSchemaLocation="https://sanaregistry.org/r/ndmxml_unqualified/ndmxml-2.0.0-master-2.0.xsd">
<omm id="CCSDS_OMM_VERS" version="2.0">
<header><CREATION_DATE/><ORIGINATOR/></header><body><segment><metadata><OBJECT_NAME>EUTELSAT 8 WEST B</OBJECT_NAME><OBJECT_ID>2015-039B</OBJECT_ID><CENTER_NAME>EARTH</CENTER_NAME><REF_FRAME>TEME</REF_FRAME><TIME_SYSTEM>UTC</TIME_SYSTEM><MEAN_ELEMENT_THEORY>SGP4</MEAN_ELEMENT_THEORY></metadata><data><meanElements><EPOCH>2026-01-26T04:32:38.685696</EPOCH><MEAN_MOTION>1.00270956</MEAN_MOTION><ECCENTRICITY>.00039963</ECCENTRICITY><INCLINATION>0.0674</INCLINATION><RA_OF_ASC_NODE>18.8908</RA_OF_ASC_NODE><ARG_OF_PERICENTER>286.7361</ARG_OF_PERICENTER><MEAN_ANOMALY>240.0038</MEAN_ANOMALY></meanElements><tleParameters><EPHEMERIS_TYPE>0</EPHEMERIS_TYPE><CLASSIFICATION_TYPE>U</CLASSIFICATION_TYPE><NORAD_CAT_ID>40875</NORAD_CAT_ID><ELEMENT_SET_NO>999</ELEMENT_SET_NO><REV_AT_EPOCH>3823</REV_AT_EPOCH><BSTAR>0</BSTAR><MEAN_MOTION_DOT>-.53E-6</MEAN_MOTION_DOT><MEAN_MOTION_DDOT>0</MEAN_MOTION_DDOT></tleParameters></data></segment></body></omm>
<omm id="CCSDS_OMM_VERS" version="2.0">
<header><CREATION_DATE/><ORIGINATOR/></header><body><segment><metadata><OBJECT_NAME>EUTELSAT 9B</OBJECT_NAME><OBJECT_ID>2016-005A</OBJECT_ID><CENTER_NAME>EARTH</CENTER_NAME><REF_FRAME>TEME</REF_FRAME><TIME_SYSTEM>UTC</TIME_SYSTEM><MEAN_ELEMENT_THEORY>SGP4</MEAN_ELEMENT_THEORY></metadata><data><meanElements><EPOCH>2026-01-26T05:10:49.469376</EPOCH><MEAN_MOTION>1.00270184</MEAN_MOTION><ECCENTRICITY>.00047433</ECCENTRICITY><INCLINATION>0.0197</INCLINATION><RA_OF_ASC_NODE>50.5622</RA_OF_ASC_NODE><ARG_OF_PERICENTER>244.7934</ARG_OF_PERICENTER><MEAN_ANOMALY>276.8277</MEAN_ANOMALY></meanElements><tleParameters><EPHEMERIS_TYPE>0</EPHEMERIS_TYPE><CLASSIFICATION_TYPE>U</CLASSIFICATION_TYPE><NORAD_CAT_ID>41310</NORAD_CAT_ID><ELEMENT_SET_NO>999</ELEMENT_SET_NO><REV_AT_EPOCH>3669</REV_AT_EPOCH><BSTAR>0</BSTAR><MEAN_MOTION_DOT>.74E-6</MEAN_MOTION_DOT><MEAN_MOTION_DDOT>0</MEAN_MOTION_DDOT></tleParameters></data></segment></body></omm>
<omm id="CCSDS_OMM_VERS" version="2.0">
<header><CREATION_DATE/><ORIGINATOR/></header><body><segment><metadata><OBJECT_NAME>EUTELSAT 65 WEST A</OBJECT_NAME><OBJECT_ID>2016-014A</OBJECT_ID><CENTER_NAME>EARTH</CENTER_NAME><REF_FRAME>TEME</REF_FRAME><TIME_SYSTEM>UTC</TIME_SYSTEM><MEAN_ELEMENT_THEORY>SGP4</MEAN_ELEMENT_THEORY></metadata><data><meanElements><EPOCH>2026-01-26T04:49:43.989312</EPOCH><MEAN_MOTION>1.00269876</MEAN_MOTION><ECCENTRICITY>.00023484</ECCENTRICITY><INCLINATION>0.0717</INCLINATION><RA_OF_ASC_NODE>308.3687</RA_OF_ASC_NODE><ARG_OF_PERICENTER>354.0675</ARG_OF_PERICENTER><MEAN_ANOMALY>190.2851</MEAN_ANOMALY></meanElements><tleParameters><EPHEMERIS_TYPE>0</EPHEMERIS_TYPE><CLASSIFICATION_TYPE>U</CLASSIFICATION_TYPE><NORAD_CAT_ID>41382</NORAD_CAT_ID><ELEMENT_SET_NO>999</ELEMENT_SET_NO><REV_AT_EPOCH>3611</REV_AT_EPOCH><BSTAR>0</BSTAR><MEAN_MOTION_DOT>-.263E-5</MEAN_MOTION_DOT><MEAN_MOTION_DDOT>0</MEAN_MOTION_DDOT></tleParameters></data></segment></body></omm>
<omm id="CCSDS_OMM_VERS" version="2.0">
<header><CREATION_DATE/><ORIGINATOR/></header><body><segment><metadata><OBJECT_NAME>EUTELSAT 117 WEST B</OBJECT_NAME><OBJECT_ID>2016-038B</OBJECT_ID><CENTER_NAME>EARTH</CENTER_NAME><REF_FRAME>TEME</REF_FRAME><TIME_SYSTEM>UTC</TIME_SYSTEM><MEAN_ELEMENT_THEORY>SGP4</MEAN_ELEMENT_THEORY></metadata><data><meanElements><EPOCH>2026-01-26T06:17:43.057824</EPOCH><MEAN_MOTION>1.00271668</MEAN_MOTION><ECCENTRICITY>.00001344</ECCENTRICITY><INCLINATION>0.0032</INCLINATION><RA_OF_ASC_NODE>122.8845</RA_OF_ASC_NODE><ARG_OF_PERICENTER>277.3243</ARG_OF_PERICENTER><MEAN_ANOMALY>62.7764</MEAN_ANOMALY></meanElements><tleParameters><EPHEMERIS_TYPE>0</EPHEMERIS_TYPE><CLASSIFICATION_TYPE>U</CLASSIFICATION_TYPE><NORAD_CAT_ID>41589</NORAD_CAT_ID><ELEMENT_SET_NO>999</ELEMENT_SET_NO><REV_AT_EPOCH>3524</REV_AT_EPOCH><BSTAR>0</BSTAR><MEAN_MOTION_DOT>.1E-7</MEAN_MOTION_DOT><MEAN_MOTION_DDOT>0</MEAN_MOTION_DDOT></tleParameters></data></segment></body></omm>
<omm id="CCSDS_OMM_VERS" version="2.0">
<header><CREATION_DATE/><ORIGINATOR/></header><body><segment><metadata><OBJECT_NAME>EUTELSAT 172B</OBJECT_NAME><OBJECT_ID>2017-029B</OBJECT_ID><CENTER_NAME>EARTH</CENTER_NAME><REF_FRAME>TEME</REF_FRAME><TIME_SYSTEM>UTC</TIME_SYSTEM><MEAN_ELEMENT_THEORY>SGP4</MEAN_ELEMENT_THEORY></metadata><data><meanElements><EPOCH>2026-01-26T07:45:29.369376</EPOCH><MEAN_MOTION>1.00271017</MEAN_MOTION><ECCENTRICITY>.00002036</ECCENTRICITY><INCLINATION>0.0271</INCLINATION><RA_OF_ASC_NODE>124.1344</RA_OF_ASC_NODE><ARG_OF_PERICENTER>128.8694</ARG_OF_PERICENTER><MEAN_ANOMALY>160.9626</MEAN_ANOMALY></meanElements><tleParameters><EPHEMERIS_TYPE>0</EPHEMERIS_TYPE><CLASSIFICATION_TYPE>U</CLASSIFICATION_TYPE><NORAD_CAT_ID>42741</NORAD_CAT_ID><ELEMENT_SET_NO>999</ELEMENT_SET_NO><REV_AT_EPOCH>3230</REV_AT_EPOCH><BSTAR>0</BSTAR><MEAN_MOTION_DOT>.6E-7</MEAN_MOTION_DOT><MEAN_MOTION_DDOT>0</MEAN_MOTION_DDOT></tleParameters></data></segment></body></omm>
<omm id="CCSDS_OMM_VERS" version="2.0">
<header><CREATION_DATE/><ORIGINATOR/></header><body><segment><metadata><OBJECT_NAME>EUTELSAT 7C</OBJECT_NAME><OBJECT_ID>2019-034B</OBJECT_ID><CENTER_NAME>EARTH</CENTER_NAME><REF_FRAME>TEME</REF_FRAME><TIME_SYSTEM>UTC</TIME_SYSTEM><MEAN_ELEMENT_THEORY>SGP4</MEAN_ELEMENT_THEORY></metadata><data><meanElements><EPOCH>2026-01-25T08:37:46.826400</EPOCH><MEAN_MOTION>1.00268959</MEAN_MOTION><ECCENTRICITY>.00033176</ECCENTRICITY><INCLINATION>0.0771</INCLINATION><RA_OF_ASC_NODE>184.6057</RA_OF_ASC_NODE><ARG_OF_PERICENTER>104.9486</ARG_OF_PERICENTER><MEAN_ANOMALY>331.5207</MEAN_ANOMALY></meanElements><tleParameters><EPHEMERIS_TYPE>0</EPHEMERIS_TYPE><CLASSIFICATION_TYPE>U</CLASSIFICATION_TYPE><NORAD_CAT_ID>44334</NORAD_CAT_ID><ELEMENT_SET_NO>999</ELEMENT_SET_NO><REV_AT_EPOCH>540</REV_AT_EPOCH><BSTAR>0</BSTAR><MEAN_MOTION_DOT>.62E-6</MEAN_MOTION_DOT><MEAN_MOTION_DDOT>0</MEAN_MOTION_DDOT></tleParameters></data></segment></body></omm>
<omm id="CCSDS_OMM_VERS" version="2.0">
<header><CREATION_DATE/><ORIGINATOR/></header><body><segment><metadata><OBJECT_NAME>EUTELSAT 5 WEST B</OBJECT_NAME><OBJECT_ID>2019-067A</OBJECT_ID><CENTER_NAME>EARTH</CENTER_NAME><REF_FRAME>TEME</REF_FRAME><TIME_SYSTEM>UTC</TIME_SYSTEM><MEAN_ELEMENT_THEORY>SGP4</MEAN_ELEMENT_THEORY></metadata><data><meanElements><EPOCH>2026-01-26T02:00:38.795040</EPOCH><MEAN_MOTION>1.00271399</MEAN_MOTION><ECCENTRICITY>.00032409</ECCENTRICITY><INCLINATION>0.0727</INCLINATION><RA_OF_ASC_NODE>327.9586</RA_OF_ASC_NODE><ARG_OF_PERICENTER>338.0304</ARG_OF_PERICENTER><MEAN_ANOMALY>204.5357</MEAN_ANOMALY></meanElements><tleParameters><EPHEMERIS_TYPE>0</EPHEMERIS_TYPE><CLASSIFICATION_TYPE>U</CLASSIFICATION_TYPE><NORAD_CAT_ID>44624</NORAD_CAT_ID><ELEMENT_SET_NO>999</ELEMENT_SET_NO><REV_AT_EPOCH>2301</REV_AT_EPOCH><BSTAR>0</BSTAR><MEAN_MOTION_DOT>-.29E-6</MEAN_MOTION_DOT><MEAN_MOTION_DDOT>0</MEAN_MOTION_DDOT></tleParameters></data></segment></body></omm>
<omm id="CCSDS_OMM_VERS" version="2.0">
<header><CREATION_DATE/><ORIGINATOR/></header><body><segment><metadata><OBJECT_NAME>EUTELSAT KONNECT</OBJECT_NAME><OBJECT_ID>2020-005B</OBJECT_ID><CENTER_NAME>EARTH</CENTER_NAME><REF_FRAME>TEME</REF_FRAME><TIME_SYSTEM>UTC</TIME_SYSTEM><MEAN_ELEMENT_THEORY>SGP4</MEAN_ELEMENT_THEORY></metadata><data><meanElements><EPOCH>2026-01-25T20:36:49.305600</EPOCH><MEAN_MOTION>1.00266980</MEAN_MOTION><ECCENTRICITY>.00017475</ECCENTRICITY><INCLINATION>0.0657</INCLINATION><RA_OF_ASC_NODE>95.2895</RA_OF_ASC_NODE><ARG_OF_PERICENTER>197.9216</ARG_OF_PERICENTER><MEAN_ANOMALY>148.3330</MEAN_ANOMALY></meanElements><tleParameters><EPHEMERIS_TYPE>0</EPHEMERIS_TYPE><CLASSIFICATION_TYPE>U</CLASSIFICATION_TYPE><NORAD_CAT_ID>45027</NORAD_CAT_ID><ELEMENT_SET_NO>999</ELEMENT_SET_NO><REV_AT_EPOCH>2290</REV_AT_EPOCH><BSTAR>0</BSTAR><MEAN_MOTION_DOT>.62E-6</MEAN_MOTION_DOT><MEAN_MOTION_DDOT>0</MEAN_MOTION_DDOT></tleParameters></data></segment></body></omm>

</ndm>
